[{"OBJECT_NAME":"STARLINK-5556","OBJECT_ID":"2023-013BG","EPOCH":"2026-03-09T01:53:02.957280","MEAN_MOTION":15.02534781,"ECCENTRICITY":4.955e-5,"INCLINATION":43.0028,"RA_OF_ASC_NODE":316.1155,"ARG_OF_PERICENTER":314.7467,"MEAN_ANOMALY":45.3335,"EPHEMERIS_TYPE":0,"CLASSIFICATION_TYPE":"U","NORAD_CAT_ID":55385,"ELEMENT_SET_NO":999,"REV_AT_EPOCH":17147,"BSTAR":-0.0001851701,"MEAN_MOTION_DOT":-2.704e-5,"MEAN_MOTION_DDOT":0},{"OBJECT_NAME":"CZ-6A DEB","OBJECT_ID":"2024-140FB","EPOCH":"2026-03-09T14:48:01.661760","MEAN_MOTION":15.0628726,"ECCENTRICITY":0.0079054,"INCLINATION":89.1878,"RA_OF_ASC_NODE":293.0208,"ARG_OF_PERICENTER":138.3366,"MEAN_ANOMALY":222.3932,"EPHEMERIS_TYPE":0,"CLASSIFICATION_TYPE":"U","NORAD_CAT_ID":60776,"ELEMENT_SET_NO":999,"REV_AT_EPOCH":8515,"BSTAR":0.002571,"MEAN_MOTION_DOT":0.00040709,"MEAN_MOTION_DDOT":0}]
